ONEWEB-0311             
1 49097U 21075Y   24323.19588191  .00000027  00000+0  37197-4 0  9999
2 49097  87.9076 120.6046 0001627 110.0988 250.0318 13.17648639158775
ONEWEB-0312             
1 49098U 21075Z   24323.21106653  .00007423  00000+0  19080-1 0  9997
2 49098  87.9076 120.6330 0001324 117.3518 242.7748 13.17611313158735
ONEWEB-0313             
1 49099U 21075AA  24322.76037699  .00000056  00000+0  11008-3 0  9999
2 49099  87.9074 120.7385 0001386 101.8391 258.2895 13.17650609157689
ONEWEB-0314             
1 49100U 21075AB  24322.95456389  .00000065  00000+0  13472-3 0  9991
2 49100  87.9068 120.6391 0001294 107.9316 252.1957 13.17645916158670
ONEWEB-0315             
1 49101U 21075AC  24322.78018429  .00000465  00000+0  12562-2 0  9994
2 49101  87.8853 105.4384 0001843 107.4362 252.6968 13.12444593159560
ONEWEB-0316             
1 49102U 21075AD  24323.10514356  .00002083  00000+0  52506-2 0  9992
2 49102  87.9100  90.0972 0001705 104.4386 255.6935 13.18674931162297
ONEWEB-0317             
1 49103U 21075AE  24322.77368366  .00000553  00000+0  15022-2 0  9995
2 49103  87.8853 105.4517 0001566  77.9839 282.1465 13.12446543159581
ONEWEB-0318             
1 49104U 21075AF  24323.10196050 -.00000059  00000+0 -18283-3 0  9999
2 49104  87.9093  90.0872 0001762 108.9258 251.2065 13.18687862162247
